STARLINK-32295          
1 62147U 24224J   26068.27456895  .00026796  00000+0  97920-3 0  9991
2 62147  42.9978 160.6962 0000910 277.2560  82.8188 15.27598266 72308
TEVEL2-9                
1 63237U 25052AD  26068.70229538  .00018694  00000+0  67240-3 0  9992
2 63237  97.4057 324.3929 0007990 124.2475 235.9522 15.28633834 54816
