[{"OBJECT_NAME":"STARLINK-32295","OBJECT_ID":"2024-224J","EPOCH":"2026-03-09T06:35:22.757280","MEAN_MOTION":15.27598266,"ECCENTRICITY":9.106e-5,"INCLINATION":42.9978,"RA_OF_ASC_NODE":160.6962,"ARG_OF_PERICENTER":277.256,"MEAN_ANOMALY":82.8188,"EPHEMERIS_TYPE":0,"CLASSIFICATION_TYPE":"U","NORAD_CAT_ID":62147,"ELEMENT_SET_NO":999,"REV_AT_EPOCH":7230,"BSTAR":0.00097919655,"MEAN_MOTION_DOT":0.00026796,"MEAN_MOTION_DDOT":0},{"OBJECT_NAME":"TEVEL2-9","OBJECT_ID":"2025-052AD","EPOCH":"2026-03-09T16:51:18.321696","MEAN_MOTION":15.28633834,"ECCENTRICITY":0.000799,"INCLINATION":97.4057,"RA_OF_ASC_NODE":324.3929,"ARG_OF_PERICENTER":124.2475,"MEAN_ANOMALY":235.9522,"EPHEMERIS_TYPE":0,"CLASSIFICATION_TYPE":"U","NORAD_CAT_ID":63237,"ELEMENT_SET_NO":999,"REV_AT_EPOCH":5481,"BSTAR":0.00067240159,"MEAN_MOTION_DOT":0.00018694,"MEAN_MOTION_DDOT":0}]
